{
  "norad_id": 68162,
  "name": "STARLINK-37013",
  "history": [
    {
      "epoch": "2026-03-28T22:00:01.999584Z",
      "apogee_km": 328.9339637143021,
      "perigee_km": 327.30447757781076,
      "latitude_deg": 40.3799672070318,
      "longitude_deg": 138.0161509233752,
      "height_km": 333.46546417418733,
      "semi_major_axis_km": 6706.256220646056,
      "eccentricity": 0.00012149,
      "inclination_deg": 97.2845,
      "raan_deg": 108.1489,
      "arg_perigee_deg": 93.5445,
      "mean_anomaly_deg": 45.7608,
      "mean_motion_rev_day": 15.80820462
    },
    {
      "epoch": "2026-03-29T03:29:24.516096Z",
      "apogee_km": 328.75427532979666,
      "perigee_km": 327.06301061863905,
      "latitude_deg": 2.3951318221642283e-05,
      "longitude_deg": -130.51906940676494,
      "height_km": 331.4339860676126,
      "semi_major_axis_km": 6706.045642974218,
      "eccentricity": 0.0001261,
      "inclination_deg": 97.2841,
      "raan_deg": 108.3888,
      "arg_perigee_deg": 114.5303,
      "mean_anomaly_deg": 245.6097,
      "mean_motion_rev_day": 15.80894922
    },
    {
      "epoch": "2026-03-30T00:45:34.362144Z",
      "apogee_km": 328.65815932856276,
      "perigee_km": 327.45640931281287,
      "latitude_deg": 2.805040026573661e-06,
      "longitude_deg": -89.49619473666613,
      "height_km": 330.8475685874275,
      "semi_major_axis_km": 6706.194284320688,
      "eccentricity": 8.96e-05,
      "inclination_deg": 97.2841,
      "raan_deg": 109.3262,
      "arg_perigee_deg": 50.2191,
      "mean_anomaly_deg": 309.9156,
      "mean_motion_rev_day": 15.80842362
    },
    {
      "epoch": "2026-03-30T05:19:02.823744Z",
      "apogee_km": 328.7989641172735,
      "perigee_km": 326.97827816113295,
      "latitude_deg": 1.7495518324333582e-05,
      "longitude_deg": -157.85097293238758,
      "height_km": 330.3199918247902,
      "semi_major_axis_km": 6706.0256211392025,
      "eccentricity": 0.00013575,
      "inclination_deg": 97.2841,
      "raan_deg": 109.5272,
      "arg_perigee_deg": 35.2712,
      "mean_anomaly_deg": 324.8646,
      "mean_motion_rev_day": 15.80902002
    },
    {
      "epoch": "2026-03-30T12:54:49.071744Z",
      "apogee_km": 328.8808315044953,
      "perigee_km": 326.91596313308037,
      "latitude_deg": 4.982658857330089e-05,
      "longitude_deg": 88.2293592962224,
      "height_km": 330.9392457945342,
      "semi_major_axis_km": 6706.035397318788,
      "eccentricity": 0.0001465,
      "inclination_deg": 97.2846,
      "raan_deg": 109.8622,
      "arg_perigee_deg": 82.2325,
      "mean_anomaly_deg": 277.911,
      "mean_motion_rev_day": 15.80898545
    },
    {
      "epoch": "2026-03-30T20:30:34.546464Z",
      "apogee_km": 328.7381403715153,
      "perigee_km": 326.7749229811825,
      "latitude_deg": -2.7078589104538538e-05,
      "longitude_deg": -25.687563768386987,
      "height_km": 330.79258886445194,
      "semi_major_axis_km": 6705.893531676349,
      "eccentricity": 0.00014638,
      "inclination_deg": 97.2849,
      "raan_deg": 110.1967,
      "arg_perigee_deg": 81.9393,
      "mean_anomaly_deg": 278.2041,
      "mean_motion_rev_day": 15.80948712
    },
    {
      "epoch": "2026-03-31T19:17:53.522016Z",
      "apogee_km": 328.6510558827358,
      "perigee_km": 327.24143718431424,
      "latitude_deg": -2.181597231692886e-05,
      "longitude_deg": -7.447522663985056,
      "height_km": 331.06367756681817,
      "semi_major_axis_km": 6706.083246533524,
      "eccentricity": 0.0001051,
      "inclination_deg": 97.2856,
      "raan_deg": 111.2017,
      "arg_perigee_deg": 85.3743,
      "mean_anomaly_deg": 274.7645,
      "mean_motion_rev_day": 15.80881625
    },
    {
      "epoch": "2026-04-01T19:36:20.758752Z",
      "apogee_km": 328.8026511794724,
      "perigee_km": 327.11137426946425,
      "latitude_deg": 8.975148271182829e-05,
      "longitude_deg": -11.987298216939346,
      "height_km": 331.2087930308586,
      "semi_major_axis_km": 6706.0940127244685,
      "eccentricity": 0.0001261,
      "inclination_deg": 97.2846,
      "raan_deg": 112.2737,
      "arg_perigee_deg": 95.2795,
      "mean_anomaly_deg": 264.8618,
      "mean_motion_rev_day": 15.80877818
    },
    {
      "epoch": "2026-04-02T19:54:49.454784Z",
      "apogee_km": 328.7324024152931,
      "perigee_km": 327.1765891882678,
      "latitude_deg": -5.86083880929533e-05,
      "longitude_deg": -16.533538254884064,
      "height_km": 331.0604068081763,
      "semi_major_axis_km": 6706.09149580178,
      "eccentricity": 0.000116,
      "inclination_deg": 97.2847,
      "raan_deg": 113.3453,
      "arg_perigee_deg": 84.9697,
      "mean_anomaly_deg": 275.1703,
      "mean_motion_rev_day": 15.80878708
    },
    {
      "epoch": "2026-04-02T22:57:07.240320Z",
      "apogee_km": 328.5216610755215,
      "perigee_km": 326.96133726633434,
      "latitude_deg": -7.931637300978333e-06,
      "longitude_deg": -62.09832847763428,
      "height_km": 330.8516191214752,
      "semi_major_axis_km": 6705.878499170928,
      "eccentricity": 0.00011634,
      "inclination_deg": 97.2847,
      "raan_deg": 113.4794,
      "arg_perigee_deg": 85.288,
      "mean_anomaly_deg": 274.8521,
      "mean_motion_rev_day": 15.80954028
    },
    {
      "epoch": "2026-04-03T20:13:17.342976Z",
      "apogee_km": 329.2501943281568,
      "perigee_km": 326.8024447165317,
      "latitude_deg": -3.0858254300414236e-06,
      "longitude_deg": -21.07632974217689,
      "height_km": 331.4172436984479,
      "semi_major_axis_km": 6706.163319522344,
      "eccentricity": 0.0001825,
      "inclination_deg": 97.285,
      "raan_deg": 114.417,
      "arg_perigee_deg": 100.254,
      "mean_anomaly_deg": 259.8934,
      "mean_motion_rev_day": 15.80853311
    },
    {
      "epoch": "2026-04-04T19:00:34.802208Z",
      "apogee_km": 329.05194278094405,
      "perigee_km": 327.108481032933,
      "latitude_deg": 5.118827291982222e-05,
      "longitude_deg": -2.829561632212972,
      "height_km": 331.460063571691,
      "semi_major_axis_km": 6706.217211906938,
      "eccentricity": 0.0001449,
      "inclination_deg": 97.2855,
      "raan_deg": 115.4224,
      "arg_perigee_deg": 102.2511,
      "mean_anomaly_deg": 257.892,
      "mean_motion_rev_day": 15.80834255
    },
    {
      "epoch": "2026-04-05T13:14:25.882080Z",
      "apogee_km": 328.68916492877725,
      "perigee_km": 327.38521641914303,
      "latitude_deg": 5.265954299055962e-05,
      "longitude_deg": 83.76268956284196,
      "height_km": 331.53028365968765,
      "semi_major_axis_km": 6706.17419067396,
      "eccentricity": 9.722e-05,
      "inclination_deg": 97.2859,
      "raan_deg": 116.2262,
      "arg_perigee_deg": 119.2407,
      "mean_anomaly_deg": 240.8959,
      "mean_motion_rev_day": 15.80849467
    },
    {
      "epoch": "2026-04-05T19:19:01.892928Z",
      "apogee_km": 328.7117777538888,
      "perigee_km": 327.1076913749803,
      "latitude_deg": 4.817109807706543e-05,
      "longitude_deg": -7.3687154759716185,
      "height_km": 331.35078962092035,
      "semi_major_axis_km": 6706.046734564434,
      "eccentricity": 0.0001196,
      "inclination_deg": 97.2858,
      "raan_deg": 116.4944,
      "arg_perigee_deg": 109.4326,
      "mean_anomaly_deg": 250.7072,
      "mean_motion_rev_day": 15.80894536
    },
    {
      "epoch": "2026-04-06T07:28:16.128192Z",
      "apogee_km": 329.2064038139524,
      "perigee_km": 326.8422137061616,
      "latitude_deg": 2.3092454948124748e-05,
      "longitude_deg": 170.35882782631995,
      "height_km": 331.41540631146484,
      "semi_major_axis_km": 6706.161308760056,
      "eccentricity": 0.00017627,
      "inclination_deg": 97.2853,
      "raan_deg": 117.0304,
      "arg_perigee_deg": 100.6243,
      "mean_anomaly_deg": 259.5224,
      "mean_motion_rev_day": 15.80854022
    },
    {
      "epoch": "2026-04-07T19:55:57.548352Z",
      "apogee_km": 328.81160197953886,
      "perigee_km": 327.0720451327079,
      "latitude_deg": -1.596274165500347e-05,
      "longitude_deg": -16.453776179673035,
      "height_km": 331.4550313881139,
      "semi_major_axis_km": 6706.078823556123,
      "eccentricity": 0.0001297,
      "inclination_deg": 97.2845,
      "raan_deg": 118.6378,
      "arg_perigee_deg": 112.9429,
      "mean_anomaly_deg": 247.1976,
      "mean_motion_rev_day": 15.80883189
    },
    {
      "epoch": "2026-04-08T14:09:48.056256Z",
      "apogee_km": 328.6380193547302,
      "perigee_km": 327.20413001720226,
      "latitude_deg": 9.498875809128324e-05,
      "longitude_deg": 70.14074969112735,
      "height_km": 331.0222159425893,
      "semi_major_axis_km": 6706.058074685966,
      "eccentricity": 0.00010691,
      "inclination_deg": 97.2847,
      "raan_deg": 119.4415,
      "arg_perigee_deg": 84.1462,
      "mean_anomaly_deg": 275.9929,
      "mean_motion_rev_day": 15.80890526
    },
    {
      "epoch": "2026-04-09T20:00:01.999008Z",
      "apogee_km": 336.2194807887963,
      "perigee_km": 333.81482897051774,
      "latitude_deg": -47.67762781576301,
      "longitude_deg": 154.64761842168053,
      "height_km": 354.6199245980155,
      "semi_major_axis_km": 6713.154154879657,
      "eccentricity": 0.0001791,
      "inclination_deg": 97.2858,
      "raan_deg": 120.757,
      "arg_perigee_deg": 77.6123,
      "mean_anomaly_deg": 150.2941,
      "mean_motion_rev_day": 15.78384589
    }
  ]
}